NORAD_CAT_ID,OBJECT_NAME,OBJECT_TYPE,EPOCH,MEAN_MOTION,ECCENTRICITY,INCLINATION,RA_OF_ASC_NODE,ARG_OF_PERICENTER,MEAN_ANOMALY,BSTAR,MEAN_MOTION_DOT,MEAN_MOTION_DDOT,TLE_LINE0,TLE_LINE1,TLE_LINE2,SEMIMAJOR_AXIS,PERIOD,APOGEE,PERIGEE,DECAYED
52133.0,STARLINK-3707,PAYLOAD,2023-10-16 13:41:03,15.08831651,0.0001202,53.2174,37.6874,85.0844,275.0285,0.00029691,4.44e-05,0.0,0 STARLINK-3707,1 52133U 22029AX  23289.57017872  .00004440  00000-0  29691-3 0  9992,2 52133  53.2174  37.6874 0001202  85.0844 275.0285 15.08831651 88820,6917.906,95.438,540.602,538.939,0.0
52133.0,STARLINK-3707,PAYLOAD,2023-10-16 16:51:49,15.08837245,0.0001191,53.2182,37.092,90.7216,269.3912,0.00085473,0.0001334,0.0,0 STARLINK-3707,1 52133U 22029AX  23289.70265921  .00013340  00000-0  85473-3 0  9996,2 52133  53.2182  37.0920 0001191  90.7216 269.3912 15.08837245 88848,6917.889,95.438,540.578,538.93,0.0
52133.0,STARLINK-3707,PAYLOAD,2023-10-17 10:21:04,15.08842901,0.0001591,53.2193,33.8224,108.1237,251.9929,0.00059167,9.142e-05,0.0,0 STARLINK-3707,1 52133U 22029AX  23290.43130128  .00009142  00000-0  59167-3 0  9994,2 52133  53.2193  33.8224 0001591 108.1237 251.9929 15.08842901 88954,6917.872,95.437,540.837,538.636,0.0
52133.0,STARLINK-3707,PAYLOAD,2023-10-17 13:31:50,15.08849455,0.0001602,53.2192,33.227,93.8166,266.301,0.00068429,0.00010622,0.0,0 STARLINK-3707,1 52133U 22029AX  23290.56378076  .00010622  00000-0  68429-3 0  9990,2 52133  53.2192  33.2270 0001602  93.8166 266.3010 15.08849455 88976,6917.851,95.437,540.825,538.608,0.0
52133.0,STARLINK-3707,PAYLOAD,2023-10-18 13:22:37,15.08849734,0.0001483,53.2184,28.7652,94.5197,265.5964,0.00033793,5.096e-05,0.0,0 STARLINK-3707,1 52133U 22029AX  23291.55738132  .00005096  00000-0  33793-3 0  9998,2 52133  53.2184  28.7652 0001483  94.5197 265.5964 15.08849734 89126,6917.851,95.437,540.742,538.69,0.0
52133.0,STARLINK-3707,PAYLOAD,2023-10-19 11:38:01,15.08854518,0.0001359,53.2178,24.6038,91.5026,268.6121,0.00027559,4.103e-05,0.0,0 STARLINK-3707,1 52133U 22029AX  23292.48473494  .00004103  00000-0  27559-3 0  9999,2 52133  53.2178  24.6038 0001359  91.5026 268.6121 15.08854518 89262,6917.836,95.437,540.641,538.761,0.0
52133.0,STARLINK-3707,PAYLOAD,2023-10-19 22:45:43,15.08848238,0.0001453,53.2181,22.5211,68.3296,291.7851,0.0001939,2.8e-05,0.0,0 STARLINK-3707,1 52133U 22029AX  23292.94841695  .00002800  00000-0  19390-3 0  9998,2 52133  53.2181  22.5211 0001453  68.3296 291.7851 15.08848238 89339,6917.855,95.437,540.725,538.715,0.0
52133.0,STARLINK-3707,PAYLOAD,2023-10-20 11:28:51,15.08788399,0.0001958,53.2194,20.1494,93.9681,266.1536,0.00136,0.00021392,0.0,0 STARLINK-3707,1 52133U 22029AX  23293.47836987  .00021392  00000-0  13600-2 0  9999,2 52133  53.2194  20.1494 0001958  93.9681 266.1536 15.08788399 89418,6918.038,95.441,541.258,538.549,0.0
52133.0,STARLINK-3707,PAYLOAD,2023-10-21 11:19:35,15.08840439,0.0001744,53.2184,15.6871,102.0209,258.0978,3.2634e-05,2.31e-06,0.0,0 STARLINK-3707,1 52133U 22029AX  23294.47194371  .00000231  00000-0  32634-4 0  9993,2 52133  53.2184  15.6871 0001744 102.0209 258.0978 15.08840439 89566,6917.879,95.438,540.951,538.538,0.0
52133.0,STARLINK-3707,PAYLOAD,2023-10-21 16:05:45,15.0884385,0.0001802,53.2177,14.7847,109.8461,250.2725,6.2807e-05,7.12e-06,0.0,0 STARLINK-3707,1 52133U 22029AX  23294.67066046  .00000712  00000-0  62807-4 0  9991,2 52133  53.2177  14.7847 0001802 109.8461 250.2725 15.08843850 89598,6917.869,95.437,540.98,538.487,0.0
52133.0,STARLINK-3707,PAYLOAD,2023-10-22 12:45:46,15.08833271,0.0001628,53.218,10.9245,83.9103,276.2074,8.4036e-05,1.049e-05,0.0,0 STARLINK-3707,1 52133U 22029AX  23295.53179144  .00001049  00000-0  84036-4 0  9993,2 52133  53.2180  10.9245 0001628  83.9103 276.2074 15.08833271 89729,6917.901,95.438,540.892,538.64,0.0
52133.0,STARLINK-3707,PAYLOAD,2023-10-22 22:18:05,15.08835218,0.0001539,53.2178,9.1421,103.1778,256.9386,0.00010689,1.413e-05,0.0,0 STARLINK-3707,1 52133U 22029AX  23295.92923156  .00001413  00000-0  10689-3 0  9993,2 52133  53.2178   9.1421 0001539 103.1778 256.9386 15.08835218 89786,6917.895,95.438,540.825,538.695,0.0
52133.0,STARLINK-3707,PAYLOAD,2023-10-23 11:01:10,15.08843219,0.0001373,53.2165,6.7631,93.5398,266.5751,4.1112e-05,3.66e-06,0.0,0 STARLINK-3707,1 52133U 22029AX  23296.45914914  .00000366  00000-0  41112-4 0  9996,2 52133  53.2165   6.7631 0001373  93.5398 266.5751 15.08843219 89866,6917.871,95.437,540.685,538.786,0.0
52133.0,STARLINK-3707,PAYLOAD,2023-10-23 22:08:52,15.08845238,0.0001357,53.2166,4.6826,96.6446,263.4701,9.3621e-05,1.203e-05,0.0,0 STARLINK-3707,1 52133U 22029AX  23296.92282866  .00001203  00000-0  93621-4 0  9995,2 52133  53.2166   4.6826 0001357  96.6446 263.4701 15.08845238 89932,6917.864,95.437,540.668,538.791,0.0
52133.0,STARLINK-3707,PAYLOAD,2023-10-24 10:51:57,15.08842371,0.0001433,53.2163,2.3014,93.8332,266.2824,0.00013786,1.907e-05,0.0,0 STARLINK-3707,1 52133U 22029AX  23297.45275109  .00001907  00000-0  13786-3 0  9990,2 52133  53.2163   2.3014 0001433  93.8332 266.2824 15.08842371 90014,6917.873,95.437,540.729,538.747,0.0
52133.0,STARLINK-3707,PAYLOAD,2023-10-25 09:07:21,15.0884029,0.0001481,53.2172,358.1407,81.6132,278.5028,9.1963e-05,1.176e-05,0.0,0 STARLINK-3707,1 52133U 22029AX  23298.38011328  .00001176  00000-0  91963-4 0  9996,2 52133  53.2172 358.1407 0001481  81.6132 278.5028 15.08840290 90153,6917.88,95.438,540.769,538.72,0.0
52133.0,STARLINK-3707,PAYLOAD,2023-10-26 10:33:31,15.08844893,0.0001553,53.2171,353.3818,94.169,265.9479,0.00010858,1.441e-05,0.0,0 STARLINK-3707,1 52133U 22029AX  23299.43994749  .00001441  00000-0  10858-3 0  9998,2 52133  53.2171 353.3818 0001553  94.1690 265.9479 15.08844893 90314,6917.865,95.437,540.805,538.656,0.0
52133.0,STARLINK-3707,PAYLOAD,2023-10-27 10:24:18,15.08848893,0.0001611,53.2174,348.9225,95.4307,264.6869,0.0001558,2.193e-05,0.0,0 STARLINK-3707,1 52133U 22029AX  23300.43354226  .00002193  00000-0  15580-3 0  9993,2 52133  53.2174 348.9225 0001611  95.4307 264.6869 15.08848893 90462,6917.853,95.437,540.833,538.604,0.0
52133.0,STARLINK-3707,PAYLOAD,2023-10-27 19:56:37,15.08844226,0.0001535,53.2178,347.137,103.5646,256.5517,7.0321e-05,8.31e-06,0.0,0 STARLINK-3707,1 52133U 22029AX  23300.83098478  .00000831  00000-0  70321-4 0  9993,2 52133  53.2178 347.1370 0001535 103.5646 256.5517 15.08844226 90523,6917.867,95.437,540.794,538.671,0.0
52133.0,STARLINK-3707,PAYLOAD,2023-10-28 10:15:06,15.08826517,0.0001554,53.2174,344.4624,86.1994,273.9176,-4.2773e-05,-9.68e-06,0.0,0 STARLINK-3707,1 52133U 22029AX  23301.42716361 -.00000968  00000-0 -42773-4 0  9990,2 52133  53.2174 344.4624 0001554  86.1994 273.9176 15.08826517 90611,6917.922,95.438,540.862,538.712,0.0
52133.0,STARLINK-3707,PAYLOAD,2023-10-28 13:25:52,15.08831885,0.0001677,53.2164,343.8662,84.8919,275.2264,-0.00010222,-1.914e-05,0.0,0 STARLINK-3707,1 52133U 22029AX  23301.55963460 -.00001914  00000-0 -10222-3 0  9993,2 52133  53.2164 343.8662 0001677  84.8919 275.2264 15.08831885 90632,6917.905,95.438,540.93,538.61,0.0
52133.0,STARLINK-3707,PAYLOAD,2023-10-28 19:47:24,15.08835599,0.000168,53.2166,342.6771,89.0188,271.0996,2.1466e-05,5.4e-07,0.0,0 STARLINK-3707,1 52133U 22029AX  23301.82459409  .00000054  00000-0  21466-4 0  9991,2 52133  53.2166 342.6771 0001680  89.0188 271.0996 15.08835599 90677,6917.894,95.438,540.921,538.597,0.0
52133.0,STARLINK-3707,PAYLOAD,2023-10-29 11:41:15,15.08866387,0.0001689,53.2157,339.703,81.244,278.8743,0.0011999,0.00018874,0.0,0 STARLINK-3707,1 52133U 22029AX  23302.48698807  .00018874  00000-0  11999-2 0  9998,2 52133  53.2157 339.7030 0001689  81.2440 278.8743 15.08866387 90771,6917.8,95.436,540.833,538.496,0.0
52133.0,STARLINK-3707,PAYLOAD,2023-10-29 19:38:11,15.0885,0.0001806,53.2165,338.2157,87.9857,272.1342,0.000236,3.471e-05,0.0,0 STARLINK-3707,1 52133U 22029AX  23302.81818999  .00003471  00000-0  23600-3 0  9991,2 52133  53.2165 338.2157 0001806  87.9857 272.1342 15.08850000 90823,6917.85,95.437,540.964,538.465,0.0
52133.0,STARLINK-3707,PAYLOAD,2023-10-30 01:59:44,15.08842834,0.0002067,53.2139,337.0279,87.9167,272.2062,-4.2068e-05,-9.58e-06,0.0,0 STARLINK-3707,1 52133U 22029AX  23303.08315147 -.00000958  00000-0 -42068-4 0  9997,2 52133  53.2139 337.0279 0002067  87.9167 272.2062 15.08842834 90860,6917.872,95.437,541.167,538.307,0.0
52133.0,STARLINK-3707,PAYLOAD,2023-10-30 19:28:59,15.08828889,0.0002006,53.216,333.7568,79.2818,280.8399,0.00058972,9.107e-05,0.0,0 STARLINK-3707,1 52133U 22029AX  23303.81180034  .00009107  00000-0  58972-3 0  9996,2 52133  53.2160 333.7568 0002006  79.2818 280.8399 15.08828889 90972,6917.914,95.438,541.167,538.392,0.0
52133.0,STARLINK-3707,PAYLOAD,2023-10-31 08:12:04,15.08834268,0.0001791,53.2159,331.3762,85.4738,274.6459,3.5964e-05,2.84e-06,0.0,0 STARLINK-3707,1 52133U 22029AX  23304.34172224  .00000284  00000-0  35964-4 0  9991,2 52133  53.2159 331.3762 0001791  85.4738 274.6459 15.08834268 91056,6917.898,95.438,541.002,538.524,0.0
52133.0,STARLINK-3707,PAYLOAD,2023-10-31 19:19:46,15.08841113,0.0001716,53.2155,329.2945,86.2152,273.9036,0.00025055,3.702e-05,0.0,0 STARLINK-3707,1 52133U 22029AX  23304.80540207  .00003702  00000-0  25055-3 0  9999,2 52133  53.2155 329.2945 0001716  86.2152 273.9036 15.08841113 91125,6917.877,95.437,540.929,538.555,0.0
52133.0,STARLINK-3707,PAYLOAD,2023-11-01 01:41:19,15.0884274,0.0001716,53.2156,328.1045,88.0474,272.0714,0.00041596,6.339e-05,0.0,0 STARLINK-3707,1 52133U 22029AX  23305.07036338  .00006339  00000-0  41596-3 0  9991,2 52133  53.2156 328.1045 0001716  88.0474 272.0714 15.08842740 91166,6917.872,95.437,540.924,538.55,0.0
52133.0,STARLINK-3707,PAYLOAD,2023-11-01 08:02:51,15.08853486,0.0001737,53.2153,326.915,88.0296,272.0895,0.00059098,9.133e-05,0.0,0 STARLINK-3707,1 52133U 22029AX  23305.33531994  .00009133  00000-0  59098-3 0  9999,2 52133  53.2153 326.9150 0001737  88.0296 272.0895 15.08853486 91205,6917.839,95.437,540.906,538.503,0.0
